[{"OBJECT_NAME":"CATSAT","OBJECT_ID":"2024-125J","EPOCH":"2026-03-09T13:24:35.272512","MEAN_MOTION":15.48684945,"ECCENTRICITY":0.00278215,"INCLINATION":97.2211,"RA_OF_ASC_NODE":280.4545,"ARG_OF_PERICENTER":188.3522,"MEAN_ANOMALY":171.727,"EPHEMERIS_TYPE":0,"CLASSIFICATION_TYPE":"U","NORAD_CAT_ID":60246,"ELEMENT_SET_NO":999,"REV_AT_EPOCH":9192,"BSTAR":0.00082380807,"MEAN_MOTION_DOT":0.00044864,"MEAN_MOTION_DDOT":0},{"OBJECT_NAME":"STARLINK-36757","OBJECT_ID":"2026-026H","EPOCH":"2026-03-09T22:00:01.999584","MEAN_MOTION":15.47745179,"ECCENTRICITY":0.0002088,"INCLINATION":97.2845,"RA_OF_ASC_NODE":123.4678,"ARG_OF_PERICENTER":87.7955,"MEAN_ANOMALY":48.2643,"EPHEMERIS_TYPE":0,"CLASSIFICATION_TYPE":"U","NORAD_CAT_ID":67728,"ELEMENT_SET_NO":999,"REV_AT_EPOCH":535,"BSTAR":-0.044342715,"MEAN_MOTION_DOT":-0.02044206,"MEAN_MOTION_DDOT":0}]
